start=new Date('2022-09-25T00:00:00.000Z').valueOf();
sats=[{"ARG_OF_PERICENTER":"60.4765","PERIOD":"95.592","MEAN_ELEMENT_THEORY":"SGP4","MEAN_ANOMALY":"299.6374","CENTER_NAME":"EARTH","PERIAPSIS":"546.164","SITE":"AFETR","BSTAR":"0.00009860800000","CLASSIFICATION_TYPE":"U","MEAN_MOTION":"15.06402930","OBJECT_TYPE":"PAYLOAD","LAUNCH_DATE":"2020-02-17","EPOCH":"2022-09-24T07:22:56.342784","TLE_LINE1":"1 45182U 20012E   22267.30759656  .00001188  00000-0  98608-4 0  9998","OBJECT_NAME":"STARLINK-1201","REV_AT_EPOCH":"14420","MEAN_MOTION_DOT":"0.00001188","SEMIMAJOR_AXIS":"6925.340","TIME_SYSTEM":"UTC","TLE_LINE2":"2 45182  53.0537 293.6656 0001503  60.4765 299.6374 15.06402930144200","FILE":"3582465","ECCENTRICITY":"0.00015030","REF_FRAME":"TEME","DECAY_DATE":null,"INCLINATION":"53.0537","COUNTRY_CODE":"US","ELEMENT_SET_NO":"999","OBJECT_ID":"2020-012E","MEAN_MOTION_DDOT":"0.0000000000000","APOAPSIS":"548.245","RCS_SIZE":"LARGE","EPHEMERIS_TYPE":"0","NORAD_CAT_ID":"45182","GP_ID":"213379898","RA_OF_ASC_NODE":"293.6656"},{"REF_FRAME":"TEME","DECAY_DATE":null,"ELEMENT_SET_NO":"999","OBJECT_ID":"2020-012F","MEAN_MOTION_DDOT":"0.0000000000000","APOAPSIS":"548.163","INCLINATION":"53.0542","COUNTRY_CODE":"US","NORAD_CAT_ID":"45183","GP_ID":"213401469","RCS_SIZE":"LARGE","EPHEMERIS_TYPE":"0","RA_OF_ASC_NODE":"311.2257","SITE":"AFETR","ARG_OF_PERICENTER":"71.7073","PERIOD":"95.592","MEAN_ELEMENT_THEORY":"SGP4","CENTER_NAME":"EARTH","MEAN_ANOMALY":"288.4069","PERIAPSIS":"546.206","LAUNCH_DATE":"2020-02-17","EPOCH":"2022-09-24T20:31:07.454496","TLE_LINE1":"1 45183U 20012F   22267.85494739  .00001878  00000-0  14490-3 0  9999","OBJECT_NAME":"STARLINK-1202","BSTAR":"0.00014490000000","CLASSIFICATION_TYPE":"U","MEAN_MOTION":"15.06409622","OBJECT_TYPE":"PAYLOAD","REV_AT_EPOCH":"14465","MEAN_MOTION_DOT":"0.00001878","TLE_LINE2":"2 45183  53.0542 311.2257 0001413  71.7073 288.4069 15.06409622144659","FILE":"3582616","ECCENTRICITY":"0.00014130","SEMIMAJOR_AXIS":"6925.319","TIME_SYSTEM":"UTC"},{"DECAY_DATE":null,"REF_FRAME":"TEME","MEAN_MOTION_DDOT":"0.0000000000000","APOAPSIS":"548.485","ELEMENT_SET_NO":"999","OBJECT_ID":"2020-012G","COUNTRY_CODE":"US","INCLINATION":"53.0549","GP_ID":"213367814","NORAD_CAT_ID":"45184","RCS_SIZE":"LARGE","EPHEMERIS_TYPE":"0","RA_OF_ASC_NODE":"293.3498","SITE":"AFETR","PERIAPSIS":"546.013","PERIOD":"95.593","MEAN_ELEMENT_THEORY":"SGP4","MEAN_ANOMALY":"304.6596","ARG_OF_PERICENTER":"55.4561","CENTER_NAME":"EARTH","EPOCH":"2022-09-24T09:09:06.241536","TLE_LINE1":"1 45184U 20012G   22267.38132224  .00000254  00000-0  35981-4 0  9992","OBJECT_NAME":"STARLINK-1205","LAUNCH_DATE":"2020-02-17","MEAN_MOTION":"15.06388476","OBJECT_TYPE":"PAYLOAD","BSTAR":"0.00003598100000","CLASSIFICATION_TYPE":"U","REV_AT_EPOCH":"14389","MEAN_MOTION_DOT":"0.00000254","ECCENTRICITY":"0.00017850","FILE":"3582188","TLE_LINE2":"2 45184  53.0549 293.3498 0001785  55.4561 304.6596 15.06388476143891","SEMIMAJOR_AXIS":"6925.384","TIME_SYSTEM":"UTC"},{"DECAY_DATE":null,"REF_FRAME":"TEME","APOAPSIS":"548.014","MEAN_MOTION_DDOT":"0.0000000000000","OBJECT_ID":"2020-012H","ELEMENT_SET_NO":"999","COUNTRY_CODE":"US","INCLINATION":"53.0552","GP_ID":"213367069","NORAD_CAT_ID":"45185","RCS_SIZE":"LARGE","EPHEMERIS_TYPE":"0","RA_OF_ASC_NODE":"313.0422","SITE":"AFETR","PERIAPSIS":"546.175","PERIOD":"95.590","CENTER_NAME":"EARTH","MEAN_ANOMALY":"287.8296","ARG_OF_PERICENTER":"72.2838","MEAN_ELEMENT_THEORY":"SGP4","TLE_LINE1":"1 45185U 20012H   22267.44950781 -.00008907  00000-0 -57920-3 0  9997","EPOCH":"2022-09-24T10:47:17.474784","OBJECT_NAME":"STARLINK-1216","LAUNCH_DATE":"2020-02-17","MEAN_MOTION":"15.06438904","OBJECT_TYPE":"PAYLOAD","BSTAR":"-0.00057920000000","CLASSIFICATION_TYPE":"U","REV_AT_EPOCH":"14453","MEAN_MOTION_DOT":"-0.00008907","ECCENTRICITY":"0.00013280","FILE":"3582188","TLE_LINE2":"2 45185  53.0552 313.0422 0001328  72.2838 287.8296 15.06438904144533","SEMIMAJOR_AXIS":"6925.229","TIME_SYSTEM":"UTC"},{"RA_OF_ASC_NODE":"311.1926","GP_ID":"213379935","NORAD_CAT_ID":"45186","RCS_SIZE":"LARGE","EPHEMERIS_TYPE":"0","APOAPSIS":"548.177","MEAN_MOTION_DDOT":"0.0000000000000","ELEMENT_SET_NO":"999","OBJECT_ID":"2020-012J","COUNTRY_CODE":"US","INCLINATION":"53.0557","REF_FRAME":"TEME","DECAY_DATE":null,"ECCENTRICITY":"0.00014300","TLE_LINE2":"2 45186  53.0557 311.1926 0001430  73.6461 286.4685 15.06408651144003","FILE":"3582467","SEMIMAJOR_AXIS":"6925.322","TIME_SYSTEM":"UTC","REV_AT_EPOCH":"14400","MEAN_MOTION_DOT":"0.00001291","TLE_LINE1":"1 45186U 20012J   22267.86232955  .00001291  00000-0  10554-3 0  9999","EPOCH":"2022-09-24T20:41:45.273120","OBJECT_NAME":"STARLINK-1224","LAUNCH_DATE":"2020-02-17","MEAN_MOTION":"15.06408651","OBJECT_TYPE":"PAYLOAD","BSTAR":"0.00010554000000","CLASSIFICATION_TYPE":"U","SITE":"AFETR","PERIAPSIS":"546.197","CENTER_NAME":"EARTH","PERIOD":"95.592","ARG_OF_PERICENTER":"73.6461","MEAN_ANOMALY":"286.4685","MEAN_ELEMENT_THEORY":"SGP4"},{"APOAPSIS":"548.298","MEAN_MOTION_DDOT":"0.0000000000000","OBJECT_ID":"2020-012K","ELEMENT_SET_NO":"999","COUNTRY_CODE":"US","INCLINATION":"53.0554","DECAY_DATE":null,"REF_FRAME":"TEME","RA_OF_ASC_NODE":"312.6662","GP_ID":"213400969","NORAD_CAT_ID":"45187","EPHEMERIS_TYPE":"0","RCS_SIZE":"LARGE","OBJECT_NAME":"STARLINK-1225","TLE_LINE1":"1 45187U 20012K   22267.53428181  .00001903  00000-0  14657-3 0  9990","EPOCH":"2022-09-24T12:49:21.948384","LAUNCH_DATE":"2020-02-17","OBJECT_TYPE":"PAYLOAD","MEAN_MOTION":"15.06406868","CLASSIFICATION_TYPE":"U","BSTAR":"0.00014657000000","SITE":"AFETR","PERIAPSIS":"546.087","ARG_OF_PERICENTER":"64.1870","PERIOD":"95.592","CENTER_NAME":"EARTH","MEAN_ANOMALY":"295.9283","MEAN_ELEMENT_THEORY":"SGP4","ECCENTRICITY":"0.00015970","TLE_LINE2":"2 45187  53.0554 312.6662 0001597  64.1870 295.9283 15.06406868144598","FILE":"3582616","TIME_SYSTEM":"UTC","SEMIMAJOR_AXIS":"6925.328","MEAN_MOTION_DOT":"0.00001903","REV_AT_EPOCH":"14459"},{"INCLINATION":"53.0516","COUNTRY_CODE":"US","OBJECT_ID":"2020-012L","ELEMENT_SET_NO":"999","APOAPSIS":"548.916","MEAN_MOTION_DDOT":"0.0000000000000","REF_FRAME":"TEME","DECAY_DATE":null,"RA_OF_ASC_NODE":"272.8266","EPHEMERIS_TYPE":"0","RCS_SIZE":"LARGE","NORAD_CAT_ID":"45188","GP_ID":"213345488","CLASSIFICATION_TYPE":"U","BSTAR":"-0.00004389000000","OBJECT_TYPE":"PAYLOAD","MEAN_MOTION":"15.06397564","LAUNCH_DATE":"2020-02-17","OBJECT_NAME":"STARLINK-1228","EPOCH":"2022-09-24T11:56:18.117888","TLE_LINE1":"1 45188U 20012L   22267.49743192 -.00000936  00000-0 -43890-4 0  9997","MEAN_ELEMENT_THEORY":"SGP4","PERIOD":"95.592","CENTER_NAME":"EARTH","MEAN_ANOMALY":"314.5588","ARG_OF_PERICENTER":"45.5601","PERIAPSIS":"545.526","SITE":"AFETR","TIME_SYSTEM":"UTC","SEMIMAJOR_AXIS":"6925.356","FILE":"3582072","TLE_LINE2":"2 45188  53.0516 272.8266 0002447  45.5601 314.5588 15.06397564144165","ECCENTRICITY":"0.00024470","MEAN_MOTION_DOT":"-0.00000936","REV_AT_EPOCH":"14416"},{"PERIAPSIS":"546.265","PERIOD":"95.591","ARG_OF_PERICENTER":"78.2041","MEAN_ELEMENT_THEORY":"SGP4","CENTER_NAME":"EARTH","MEAN_ANOMALY":"281.9095","SITE":"AFETR","OBJECT_TYPE":"PAYLOAD","MEAN_MOTION":"15.06414553","CLASSIFICATION_TYPE":"U","BSTAR":"0.00002451500000","OBJECT_NAME":"STARLINK-1230","TLE_LINE1":"1 45189U 20012M   22267.60430995  .00000084  00000-0  24515-4 0  9990","EPOCH":"2022-09-24T14:30:12.379680","LAUNCH_DATE":"2020-02-17","MEAN_MOTION_DOT":"0.00000084","REV_AT_EPOCH":"14183","TIME_SYSTEM":"UTC","SEMIMAJOR_AXIS":"6925.304","ECCENTRICITY":"0.00013050","TLE_LINE2":"2 45189  53.0556 312.3535 0001305  78.2041 281.9095 15.06414553141831","FILE":"3582616","REF_FRAME":"TEME","DECAY_DATE":null,"COUNTRY_CODE":"US","INCLINATION":"53.0556","MEAN_MOTION_DDOT":"0.0000000000000","APOAPSIS":"548.073","ELEMENT_SET_NO":"999","OBJECT_ID":"2020-012M","EPHEMERIS_TYPE":"0","RCS_SIZE":"LARGE","GP_ID":"213402470","NORAD_CAT_ID":"45189","RA_OF_ASC_NODE":"312.3535"},{"PERIAPSIS":"546.035","PERIOD":"95.592","ARG_OF_PERICENTER":"58.5158","MEAN_ELEMENT_THEORY":"SGP4","MEAN_ANOMALY":"301.5997","CENTER_NAME":"EARTH","SITE":"AFETR","MEAN_MOTION":"15.06400999","OBJECT_TYPE":"PAYLOAD","BSTAR":"0.00013873000000","CLASSIFICATION_TYPE":"U","TLE_LINE1":"1 45190U 20012N   22267.75543981  .00001785  00000-0  13873-3 0  9991","EPOCH":"2022-09-24T18:07:49.999584","OBJECT_NAME":"STARLINK-1234","LAUNCH_DATE":"2020-02-17","REV_AT_EPOCH":"14509","MEAN_MOTION_DOT":"0.00001785","SEMIMAJOR_AXIS":"6925.345","TIME_SYSTEM":"UTC","ECCENTRICITY":"0.00016970","TLE_LINE2":"2 45190  53.0522 271.6761 0001697  58.5158 301.5997 15.06400999145099","FILE":"3582616","DECAY_DATE":null,"REF_FRAME":"TEME","COUNTRY_CODE":"US","INCLINATION":"53.0522","MEAN_MOTION_DDOT":"0.0000000000000","APOAPSIS":"548.386","ELEMENT_SET_NO":"999","OBJECT_ID":"2020-012N","RCS_SIZE":"LARGE","EPHEMERIS_TYPE":"0","GP_ID":"213402220","NORAD_CAT_ID":"45190","RA_OF_ASC_NODE":"271.6761"},{"OBJECT_TYPE":"PAYLOAD","MEAN_MOTION":"15.06399745","CLASSIFICATION_TYPE":"U","BSTAR":"0.00004702400000","OBJECT_NAME":"STARLINK-1236","EPOCH":"2022-09-24T08:18:39.909600","TLE_LINE1":"1 45191U 20012P   22267.34629525  .00000419  00000-0  47024-4 0  9995","LAUNCH_DATE":"2020-02-17","PERIAPSIS":"546.392","CENTER_NAME":"EARTH","PERIOD":"95.592","MEAN_ANOMALY":"287.2128","MEAN_ELEMENT_THEORY":"SGP4","ARG_OF_PERICENTER":"72.8991","SITE":"AFETR","TIME_SYSTEM":"UTC","SEMIMAJOR_AXIS":"6925.349","ECCENTRICITY":"0.00011870","FILE":"3582188","TLE_LINE2":"2 45191  53.0541 313.5020 0001187  72.8991 287.2128 15.06399745141787","MEAN_MOTION_DOT":"0.00000419","REV_AT_EPOCH":"14178","COUNTRY_CODE":"US","INCLINATION":"53.0541","MEAN_MOTION_DDOT":"0.0000000000000","APOAPSIS":"548.036","OBJECT_ID":"2020-012P","ELEMENT_SET_NO":"999","DECAY_DATE":null,"REF_FRAME":"TEME","RA_OF_ASC_NODE":"313.5020","EPHEMERIS_TYPE":"0","RCS_SIZE":"LARGE","GP_ID":"213367572","NORAD_CAT_ID":"45191"}];
